KUIPER-00035            
1 63748U 25088AA  25202.86234077  .00009545  00000+0  53696-3 0  9993
2 63748  51.8799  57.9128 0004053  70.2311 289.9103 15.13876561 13286
KUIPER-00037            
1 63749U 25088AB  25202.88825841  .00010882  00000+0  58866-3 0  9991
2 63749  51.8841  57.2288 0003127 352.1134   7.9793 15.15134882 14088
KUIPER-00038            
1 63750U 25088AC  25202.85050993  .00014110  00000+0  38539-3 0  9991
2 63750  51.8718  52.6254 0004741  58.2327 301.9121 15.37659062 13140
KUIPER-00039            
1 64500U 25134A   25202.71390103  .00019160  00000+0  56750-3 0  9997
2 64500  51.8667 194.8635 0007401 217.2969 142.7503 15.34862778  5585
KUIPER-00040            
1 64501U 25134B   25203.19529673 -.00158302  00000+0 -55944-2 0  9994
2 64501  51.8650 192.8427 0011708 226.3686 133.6327 15.29223571  5193
KUIPER-00041            
1 64502U 25134C   25203.20297457 -.00230538  00000+0 -90936-2 0  9991
2 64502  51.8692 192.8510 0008860 224.1231 135.9045 15.25996187  5198
KUIPER-00042            
1 64503U 25134D   25203.24037227  .00020973  00000+0  62502-3 0  9990
2 64503  51.8647 192.3844 0008537 218.6304 141.4072 15.34600554  5208
KUIPER-00043            
1 64504U 25134E   25203.23622587  .00021801  00000+0  64549-3 0  9993
2 64504  51.8691 192.3638 0007782 212.2702 147.7809 15.34786841  5584
